#aV2014  5 25  0  0  0.00000000     288 DD+AD WGS84 FIT  NGA
## 1794      0.00000000   300.00000000 56802 0.0000000000000
+   31     1  2  3  4  5  7  8  9 10 11 12 13 14 15 16 17 18
+         19 20 21 22 23 24 25 26 27 28 29 30 31 32  0  0  0
+          0  0  0  0  0  0  0  0  0  0  0  0  0  0  0  0  0
+          0  0  0  0  0  0  0  0  0  0  0  0  0  0  0  0  0
+          0  0  0  0  0  0  0  0  0  0  0  0  0  0  0  0  0
++         2  2  2  2  2  2  2  2  2  2  2  2  2  2  2  2  2
++         2  2  2  2  2  2  2  2  2  2  2  2  2  2  0  0  0
++         0  0  0  0  0  0  0  0  0  0  0  0  0  0  0  0  0
++         0  0  0  0  0  0  0  0  0  0  0  0  0  0  0  0  0
++         0  0  0  0  0  0  0  0  0  0  0  0  0  0  0  0  0
%c cc cc ccc ccc cccc cccc cccc cccc ccccc ccccc ccccc ccccc
%c cc cc ccc ccc cccc cccc cccc cccc ccccc ccccc ccccc ccccc
%f  0.0000000  0.000000000  0.00000000000  0.000000000000000
%f  0.0000000  0.000000000  0.00000000000  0.000000000000000
%i    0    0    0    0      0      0      0      0         0
%i    0    0    0    0      0      0      0      0         0
/*      NGA, ST. LOUIS,MO.                                  
/*   EPHEMERIS COMPUTED FROM  1 DAYS OF DATA                
/*   EPOCHA SMOOTHER                                       
/* CCCCCCCCCCCCCCCCCCCCCCCCCCCCCCCCCCCCCCCCCCCCCCCCCCCCCCCCC
*  2014  5 25 16 45  0.00000000
P  1 -18548.171699 -13352.809545 -13679.932023     13.354381                    
V  1  17351.312431   1232.534153 -24644.369977      0.011776                    
P  2  -5352.910352  15049.062084  21474.018641    497.357707                    
V  2 -26268.687969  -4903.456214  -3647.198841      0.021554                    
P  3   2513.502855 -22890.205983 -13653.509222    369.533256                    
V  3  11050.062131 -12614.484048  24317.354371      0.048444                    
P  4 -19710.563891   8125.632706  15673.597277      6.925279                    
V  4 -19699.833511  -5932.733802 -21048.408434      0.000618                    
P  5    591.789701  24287.445061  10500.617306   -370.440196                    
V  5  -7294.956751 -11703.774394  27550.053587      0.026054                    
P  7 -25989.938439  -6249.587315    986.217300    350.262182                    
V  7   1575.141743  -1847.142913  31771.331333      0.042171                    
P  8 -25396.755171  -2538.305428  -8248.591542     13.783286                    
V  8  -9648.913436  -4266.285796  29853.069377      0.002023                    
P  9 -23747.724332   3636.878008 -12072.226276    330.256497                    
V  9 -13844.755574  -4224.067270  26983.676140      0.028527                    
P 10 -11819.957284  11459.533461  20423.733399   -127.025600                    
V 10  -9657.579478 -25095.505080   8773.054777     -0.016364                    
P 11 -11912.208633 -14327.239448 -19479.134362   -491.862351                    
V 11  23543.135838  -4775.499860 -10958.643076     -0.030930                    
P 12  11238.571281  23448.238754   5901.826112    207.242422                    
V 12    555.126347   7692.143325 -31032.918158      0.024647                    
P 13 -16831.787072  -2913.930798  20250.504323     -3.781798                    
V 13  18328.891392 -18341.558204  12351.678929     -0.038314                    
P 14  21329.485458 -12927.294929  -8687.598940    169.653850                    
V 14  -6287.314636   9793.562037 -29418.195296     -0.034455                    
P 15   2857.954984  18527.410759 -18761.757231   -181.519868                    
V 15 -16349.210411  17516.428715  15140.411746     -0.021702                    
P 16    437.529266 -24096.761661  10683.577369   -216.632722                    
V 16   5678.481620  12658.889828  28535.420319      0.019553                    
P 17 -20808.487832  13960.158453  -8194.343991    -96.061945                    
V 17   5490.908635  -9678.880311 -29724.478662     -0.031097                    
P 18  17346.766502   7336.199331 -18396.491247    321.453399                    
V 18   6521.394646  23493.521880  14815.802503      0.023511                    
P 19   1179.183709 -18931.862751 -18538.058272   -458.922236                    
V 19  17983.782254 -15068.462434  17101.435691     -0.021690                    
P 20 -14527.399671 -21114.605460   6916.499285    193.111661                    
V 20   -148.095596  -9759.936312 -29251.918236      0.039169                    
P 21  26468.908202   3640.299371  -1548.973438   -363.170536                    
V 21   2059.873879   3790.708765  30733.591763     -0.022221                    
P 22  14096.892111  -7613.397136 -20961.552513    236.959301                    
V 22   9620.685949  25525.345179  -2937.196778      0.031197                    
P 23  -8857.478043 -13043.848363  21435.283659    -23.389063                    
V 23  18327.072744 -19909.893270  -4984.766253     -0.030692                    
P 24  14377.166689  14673.693005 -16910.614865    -28.982584                    
V 24 -21386.564444  -1987.006621 -19839.676445     -0.006662                    
P 25  16196.612001  14063.677229  15677.569245     24.285168                    
V 25   5160.060868  19337.580060 -22439.810936      0.004416                    
P 26  -9437.710970  21308.890513 -13117.496973     67.662507                    
V 26 -12672.924663   9438.750793  26034.737242     -0.118995                    
P 27  10662.814428 -22432.783442  -9329.957198    -14.492087                    
V 27   9619.259128  -7370.654964  28791.531661      0.021706                    
P 28 -14208.498678   2455.943039 -21710.079901    357.452972                    
V 28  -7719.428480 -27908.878098   1717.729970      0.027517                    
P 29  16271.312850   3540.334572  20719.282150    535.062222                    
V 29 -17485.130728  19538.511777  10459.739750      0.026633                    
P 30 -25019.843610   -278.087561  -8966.523066    -16.033255                    
V 30 -10285.473824  -5494.154407  28869.548486     -0.056316                    
P 31  16683.068643  -9257.398867  18758.268132    334.182515                    
V 31  22587.965514   6001.756755 -16965.947723     -0.000982                    
P 32  -4542.294745 -26294.387531  -2988.335391   -421.251958                    
V 32   3598.729052   3010.428469 -30817.541725      0.082414                    
EOF
